{"type": "FeatureCollection", "features": [ {"type": "Feature", "properties": {"norad_id": 37867, "name": "COSMOS 2476 (744)", "group": "gnss", "lat": -48.42729812276744, "lon": -69.47400590466643, "alt_km": 19074.69660237325, "timestamp": "2025-12-14T20:40:32.013592+00:00", "meta": {"OBJECT_NAME": "COSMOS 2476 (744)", "OBJECT_ID": "2011-064A", "EPOCH": "2025-12-10T19:30:14.482368", "MEAN_MOTION": 2.13101258, "ECCENTRICITY": 0.00238922, "INCLINATION": 65.1614, "RA_OF_ASC_NODE": 79.2364, "ARG_OF_PERICENTER": 233.6597, "MEAN_ANOMALY": 135.7131, "EPHEMERIS_TYPE": 0, "CLASSIFICATION_TYPE": "U", "NORAD_CAT_ID": 37867, "ELEMENT_SET_NO": 999, "REV_AT_EPOCH": 10975, "BSTAR": 0, "MEAN_MOTION_DOT": -2.4e-07, "MEAN_MOTION_DDOT": 0}, "tle": {"line1": "1 37867U 11064A   25344.81266762 -.00000024  00000+0  00000+0 0  9994", "line2": "2 37867  65.1614  79.2364 0023892 233.6597 135.7131  2.13101258109752"}}, "geometry": {"type": "Point", "coordinates": [-69.47400590466643, -48.42729812276744]}}, {"type": "Feature", "properties": {"norad_id": 37868, "name": "COSMOS 2477 (745)", "group": "gnss", "lat": 49.12065475793197, "lon": 111.46143110636181, "alt_km": 19178.116155488904, "timestamp": "2025-12-14T20:40:32.013605+00:00", "meta": {"OBJECT_NAME": "COSMOS 2477 (745)", "OBJECT_ID": "2011-064B", "EPOCH": "2025-12-14T07:44:45.060864", "MEAN_MOTION": 2.1310285, "ECCENTRICITY": 0.00211349, "INCLINATION": 65.1702, "RA_OF_ASC_NODE": 79.1952, "ARG_OF_PERICENTER": 234.5581, "MEAN_ANOMALY": 128.5522, "EPHEMERIS_TYPE": 0, "CLASSIFICATION_TYPE": "U", "NORAD_CAT_ID": 37868, "ELEMENT_SET_NO": 999, "REV_AT_EPOCH": 10982, "BSTAR": 0, "MEAN_MOTION_DOT": -5.4e-07, "MEAN_MOTION_DDOT": 0}, "tle": {"line1": "1 37868U 11064B   25348.32274376 -.00000054  00000+0  00000+0 0  9998", "line2": "2 37868  65.1702  79.1952 0021134 234.5581 128.5522  2.13102850109824"}}, "geometry": {"type": "Point", "coordinates": [111.46143110636181, 49.12065475793197]}}, {"type": "Feature", "properties": {"norad_id": 37869, "name": "COSMOS 2475 (743)", "group": "gnss", "lat": 11.405053367879256, "lon": 84.55086715578354, "alt_km": 19166.34907061541, "timestamp": "2025-12-14T20:40:32.013627+00:00", "meta": {"OBJECT_NAME": "COSMOS 2475 (743)", "OBJECT_ID": "2011-064C", "EPOCH": "2025-12-13T13:22:27.614784", "MEAN_MOTION": 2.1310138, "ECCENTRICITY": 0.00262467, "INCLINATION": 65.1766, "RA_OF_ASC_NODE": 79.2411, "ARG_OF_PERICENTER": 248.6291, "MEAN_ANOMALY": 203.1701, "EPHEMERIS_TYPE": 0, "CLASSIFICATION_TYPE": "U", "NORAD_CAT_ID": 37869, "ELEMENT_SET_NO": 999, "REV_AT_EPOCH": 10981, "BSTAR": 0, "MEAN_MOTION_DOT": -5e-07, "MEAN_MOTION_DDOT": 0}, "tle": {"line1": "1 37869U 11064C   25347.55726406 -.00000050  00000+0  00000+0 0  9995", "line2": "2 37869  65.1766  79.2411 0026246 248.6291 203.1701  2.13101380109814"}}, "geometry": {"type": "Point", "coordinates": [84.55086715578354, 11.405053367879256]}}, {"type": "Feature", "properties": {"norad_id": 37948, "name": "BEIDOU-2 IGSO-5 (C10)", "group": "gnss", "lat": -23.900190120143055, "lon": 117.27273998694918, "alt_km": 35326.692985683476, "timestamp": "2025-12-14T20:40:32.013645+00:00", "meta": {"OBJECT_NAME": "BEIDOU-2 IGSO-5 (C10)", "OBJECT_ID": "2011-073A", "EPOCH": "2025-12-12T18:24:47.608416", "MEAN_MOTION": 1.00291151, "ECCENTRICITY": 0.01101752, "INCLINATION": 48.0199, "RA_OF_ASC_NODE": 273.857, "ARG_OF_PERICENTER": 222.308, "MEAN_ANOMALY": 314.7254, "EPHEMERIS_TYPE": 0, "CLASSIFICATION_TYPE": "U", "NORAD_CAT_ID": 37948, "ELEMENT_SET_NO": 999, "REV_AT_EPOCH": 5126, "BSTAR": 0, "MEAN_MOTION_DOT": -2.21e-06, "MEAN_MOTION_DDOT": 0}, "tle": {"line1": "1 37948U 11073A   25346.76721769 -.00000221  00000+0  00000+0 0  9992", "line2": "2 37948  48.0199 273.8570 0110175 222.3080 314.7254  1.00291151 51268"}}, "geometry": {"type": "Point", "coordinates": [117.27273998694918, -23.900190120143055]}}, {"type": "Feature", "properties": {"norad_id": 37951, "name": "LUCH 5A (SDCM/PRN 140)", "group": "gnss", "lat": 6.818938079538172, "lon": -158.77032334532058, "alt_km": 35771.79023954108, "timestamp": "2025-12-14T20:40:32.013659+00:00", "meta": {"OBJECT_NAME": "LUCH 5A (SDCM/PRN 140)", "OBJECT_ID": "2011-074B", "EPOCH": "2025-12-13T22:48:14.312160", "MEAN_MOTION": 1.00275268, "ECCENTRICITY": 0.00054543, "INCLINATION": 8.2831, "RA_OF_ASC_NODE": 76.5681, "ARG_OF_PERICENTER": 181.861, "MEAN_ANOMALY": 333.5869, "EPHEMERIS_TYPE": 0, "CLASSIFICATION_TYPE": "U", "NORAD_CAT_ID": 37951, "ELEMENT_SET_NO": 999, "REV_AT_EPOCH": 5119, "BSTAR": 0, "MEAN_MOTION_DOT": -3.5e-07, "MEAN_MOTION_DDOT": 0}, "tle": {"line1": "1 37951U 11074B   25347.95016565 -.00000035  00000+0  00000+0 0  9993", "line2": "2 37951   8.2831  76.5681 0005454 181.8610 333.5869  1.00275268 51199"}}, "geometry": {"type": "Point", "coordinates": [-158.77032334532058, 6.818938079538172]}}, {"type": "Feature", "properties": {"norad_id": 38091, "name": "BEIDOU-2 G5 (C05)", "group": "gnss", "lat": 1.190297726110617, "lon": 92.75751430543981, "alt_km": 35832.27241388814, "timestamp": "2025-12-14T20:40:32.013671+00:00", "meta": {"OBJECT_NAME": "BEIDOU-2 G5 (C05)", "OBJECT_ID": "2012-008A", "EPOCH": "2025-12-14T01:42:50.088384", "MEAN_MOTION": 1.00276262, "ECCENTRICITY": 0.00125582, "INCLINATION": 3.1128, "RA_OF_ASC_NODE": 70.7076, "ARG_OF_PERICENTER": 228.1722, "MEAN_ANOMALY": 228.6353, "EPHEMERIS_TYPE": 0, "CLASSIFICATION_TYPE": "U", "NORAD_CAT_ID": 38091, "ELEMENT_SET_NO": 999, "REV_AT_EPOCH": 5051, "BSTAR": 0, "MEAN_MOTION_DOT": 7.1e-07, "MEAN_MOTION_DDOT": 0}, "tle": {"line1": "1 38091U 12008A   25348.07141306  .00000071  00000+0  00000+0 0  9992", "line2": "2 38091   3.1128  70.7076 0012558 228.1722 228.6353  1.00276262 50516"}}, "geometry": {"type": "Point", "coordinates": [92.75751430543981, 1.190297726110617]}}, {"type": "Feature", "properties": {"norad_id": 38250, "name": "BEIDOU-2 M3 (C11)", "group": "gnss", "lat": -54.32207954126713, "lon": -158.469078686969, "alt_km": 21468.646529069654, "timestamp": "2025-12-14T20:40:32.013683+00:00", "meta": {"OBJECT_NAME": "BEIDOU-2 M3 (C11)", "OBJECT_ID": "2012-018A", "EPOCH": "2025-12-13T22:30:51.861600", "MEAN_MOTION": 1.86229879, "ECCENTRICITY": 0.00242907, "INCLINATION": 55.9188, "RA_OF_ASC_NODE": 311.1166, "ARG_OF_PERICENTER": 274.3199, "MEAN_ANOMALY": 85.3911, "EPHEMERIS_TYPE": 0, "CLASSIFICATION_TYPE": "U", "NORAD_CAT_ID": 38250, "ELEMENT_SET_NO": 999, "REV_AT_EPOCH": 9249, "BSTAR": 0, "MEAN_MOTION_DOT": -9.6e-07, "MEAN_MOTION_DDOT": 0}, "tle": {"line1": "1 38250U 12018A   25347.93810025 -.00000096  00000+0  00000+0 0  9993", "line2": "2 38250  55.9188 311.1166 0024290 274.3199  85.3911  1.86229879 92490"}}, "geometry": {"type": "Point", "coordinates": [-158.469078686969, -54.32207954126713]}}, {"type": "Feature", "properties": {"norad_id": 38251, "name": "BEIDOU-2 M4 (C12)", "group": "gnss", "lat": -42.95446268373701, "lon": -88.92552487900944, "alt_km": 21494.749174965116, "timestamp": "2025-12-14T20:40:32.013694+00:00", "meta": {"OBJECT_NAME": "BEIDOU-2 M4 (C12)", "OBJECT_ID": "2012-018B", "EPOCH": "2025-12-13T07:59:48.422112", "MEAN_MOTION": 1.86229462, "ECCENTRICITY": 0.00154528, "INCLINATION": 55.8208, "RA_OF_ASC_NODE": 310.3658, "ARG_OF_PERICENTER": 277.4494, "MEAN_ANOMALY": 82.3644, "EPHEMERIS_TYPE": 0, "CLASSIFICATION_TYPE": "U", "NORAD_CAT_ID": 38251, "ELEMENT_SET_NO": 999, "REV_AT_EPOCH": 9248, "BSTAR": 0, "MEAN_MOTION_DOT": -9.5e-07, "MEAN_MOTION_DDOT": 0}, "tle": {"line1": "1 38251U 12018B   25347.33319933 -.00000095  00000+0  00000+0 0  9999", "line2": "2 38251  55.8208 310.3658 0015452 277.4494  82.3644  1.86229462 92489"}}, "geometry": {"type": "Point", "coordinates": [-88.92552487900944, -42.95446268373701]}}, {"type": "Feature", "properties": {"norad_id": 38652, "name": "SES-5 (EGNOS/PRN 136)", "group": "gnss", "lat": 0.07541120661763283, "lon": 38.88377709781966, "alt_km": 35792.80619065548, "timestamp": "2025-12-14T20:40:32.013706+00:00", "meta": {"OBJECT_NAME": "SES-5 (EGNOS/PRN 136)", "OBJECT_ID": "2012-036A", "EPOCH": "2025-12-14T06:35:36.684096", "MEAN_MOTION": 1.00269543, "ECCENTRICITY": 0.00019726, "INCLINATION": 0.0574, "RA_OF_ASC_NODE": 304.8949, "ARG_OF_PERICENTER": 316.66, "MEAN_ANOMALY": 285.5194, "EPHEMERIS_TYPE": 0, "CLASSIFICATION_TYPE": "U", "NORAD_CAT_ID": 38652, "ELEMENT_SET_NO": 999, "REV_AT_EPOCH": 4260, "BSTAR": 0, "MEAN_MOTION_DOT": 5.1e-07, "MEAN_MOTION_DDOT": 0}, "tle": {"line1": "1 38652U 12036A   25348.27473014  .00000051  00000+0  00000+0 0  9990", "line2": "2 38652   0.0574 304.8949 0001972 316.6600 285.5194  1.00269543 42606"}}, "geometry": {"type": "Point", "coordinates": [38.88377709781966, 0.07541120661763283]}}, {"type": "Feature", "properties": {"norad_id": 38775, "name": "BEIDOU-2 M6 (C14)", "group": "gnss", "lat": 33.475865965438494, "lon": -137.05746045909507, "alt_km": 21552.219423991795, "timestamp": "2025-12-14T20:40:32.013720+00:00", "meta": {"OBJECT_NAME": "BEIDOU-2 M6 (C14)", "OBJECT_ID": "2012-050B", "EPOCH": "2025-12-14T02:49:55.185312", "MEAN_MOTION": 1.86230872, "ECCENTRICITY": 0.00112196, "INCLINATION": 56.3796, "RA_OF_ASC_NODE": 69.0216, "ARG_OF_PERICENTER": 344.1839, "MEAN_ANOMALY": 15.7992, "EPHEMERIS_TYPE": 0, "CLASSIFICATION_TYPE": "U", "NORAD_CAT_ID": 38775, "ELEMENT_SET_NO": 999, "REV_AT_EPOCH": 8986, "BSTAR": 0, "MEAN_MOTION_DOT": -8.2e-07, "MEAN_MOTION_DDOT": 0}, "tle": {"line1": "1 38775U 12050B   25348.11799983 -.00000082  00000+0  00000+0 0  9996", "line2": "2 38775  56.3796  69.0216 0011219 344.1839  15.7992  1.86230872 89869"}}, "geometry": {"type": "Point", "coordinates": [-137.05746045909507, 33.475865965438494]}}]}